CUTE-1 (CO-55)          
1 27844U 03031E   26204.00389230  .00000238  00000+0  12202-3 0  9993
2 27844  98.6747 212.1136 0010851  82.6312 277.6100 14.24355144196777
CUBESAT XI-IV (CO-57)   
1 27848U 03031J   26204.01036090  .00000205  00000+0  10894-3 0  9990
2 27848  98.6778 211.8037 0010712  99.0689 261.1702 14.23637690196477
CUBESAT XI-V            
1 28895U 05043F   26202.37477685  .00000932  00000+0  15414-3 0  9994
2 28895  98.3024 358.7230 0015344  97.2573 263.0378 14.72712744106788
CUTE-1.7+APD II (CO-65) 
1 32785U 08021C   26204.90351631  .00005526  00000+0  34633-3 0  9997
2 32785  97.8297 187.0993 0006984 262.5532  97.4902 15.09759353990734
CANX-2                  
1 32790U 08021H   26204.17335308  .00003699  00000+0  25920-3 0  9993
2 32790  97.8656 184.6611 0008684 285.1873  74.8392 15.05839367990223
SEEDS II (CO-66)        
1 32791U 08021J   26204.41936485  .00018972  00000+0  58050-3 0  9994
2 32791  97.7535 204.0815 0003921 140.5450 219.6077 15.33884906992845
SWISSCUBE               
1 35932U 09051B   26204.70275328  .00000827  00000+0  17279-3 0  9990
2 35932  98.3998 113.2224 0008119  96.5719 263.6406 14.62542626894490
BEESAT-1                
1 35933U 09051C   26204.45751220  .00000681  00000+0  14632-3 0  9991
2 35933  98.3926 112.5322 0006473 108.5434 251.6470 14.61771462894480
ITUPSAT1                
1 35935U 09051E   26204.68575000  .00000630  00000+0  13985-3 0  9992
2 35935  98.4010 111.9164 0008530 119.7043 240.5006 14.60487961894063
TISAT 1                 
1 36799U 10035E   26204.81537073  .00021276  00000+0  66889-3 0  9998
2 36799  98.0705 154.6552 0004872 103.9525 256.2257 15.32998481873310
STRAND-1                
1 39090U 13009E   26204.05022801  .00000241  00000+0  95167-4 0  9994
2 39090  98.3941  23.4053 0009729 120.1275 240.0877 14.37182344702216
BRITE-AUSTRIA           
1 39091U 13009F   26204.42694106  .00000152  00000+0  66177-4 0  9999
2 39091  98.4015  22.9694 0011164 128.0957 232.1238 14.36554972702251
NEE-01 PEGASO           
1 39151U 13018B   26203.83564981  .00002090  00000+0  20251-3 0  9992
2 39151  98.1267 349.1763 0013460  51.2724 308.9696 14.93816948716022
POPACS 2                
1 39269U 13055E   26204.46603817  .00024147 -85698-6  39593-3 0  9995
2 39269  80.9912 102.6444 0413888  77.3533 287.3618 14.92301661668627
POPACS 3                
1 39270U 13055F   26204.39084962  .00009628  00000+0  22978-3 0  9995
2 39270  81.0011 189.9076 0547706 319.6638  36.5105 14.56801841643820
ZACUBE-1 (TSHEPISOSAT)  
1 39417U 13066B   26204.33245205  .00003415  00000+0  26445-3 0  9994
2 39417  97.7990 166.8439 0044074 129.2358 231.2791 15.01362379686151
WNISAT-1                
1 39423U 13066H   26204.85669936  .00001039  00000+0  19587-3 0  9998
2 39423  97.7246 351.4186 0164240 116.2252 245.5936 14.58134840672076
TRITON-1                
1 39427U 13066M   26204.82880615  .00002457  00000+0  29594-3 0  9992
2 39427  97.8207 113.7971 0091186 114.3708 246.7057 14.81820622679511
GOMX-1                  
1 39430U 13066Q   26204.81846378  .00001129  00000+0  17591-3 0  9992
2 39430  97.6472  42.9702 0127527 320.4109  38.7837 14.69557069675290
CUBEBUG-2 (LO-74)       
1 39440U 13066AA  26204.83512302  .00002521  00000+0  23515-3 0  9992
2 39440  97.8914 153.9789 0055500 265.9774  93.5100 14.94009532682468
NEE-02 KRYSAOR          
1 39441U 13066AB  26204.28413992  .00001814  00000+0  20262-3 0  9997
2 39441  97.8897 143.2466 0064744 312.4198  47.1551 14.86763677681564
FUNCUBE-1 (AO-73)       
1 39444U 13066AE  26204.51050627  .00007621  00000+0  46628-3 0  9994
2 39444  97.8300 176.7303 0038149  80.8155 279.7386 15.09909897685145
UWE-3                   
1 39446U 13066AG  26204.84133976  .00003442  00000+0  29571-3 0  9996
2 39446  97.8727 161.1728 0047902 194.9882 164.9923 14.97246613683067
BRITE-CA1 (TORONTO)     
1 40020U 14033L   26204.79529980  .00000978  00000+0  15383-3 0  9996
2 40020  97.9780 333.0575 0079115 158.8153 201.6362 14.72736379647600
DUCHIFAT-1              
1 40021U 14033M   26204.12789154  .00177994  00000+0  12882-2 0  9998
2 40021  98.0412 268.5702 0003896 226.4566 133.6372 15.72917143661389
NANOSATC-BR1            
1 40024U 14033Q   26204.78148303  .00017941  00000+0  57271-3 0  9995
2 40024  98.0713 240.4405 0004893  76.5125 283.6660 15.32548717659586
QB50P1                  
1 40025U 14033R   26203.79923947  .00008602  00000+0  41700-3 0  9995
2 40025  98.0975 217.4558 0010565 102.9257 257.3156 15.18749882658434
QB50P2                  
1 40032U 14033Y   26204.81336500  .00007503  00000+0  39859-3 0  9991
2 40032  98.0772 203.9885 0008935  59.9855 300.2261 15.15594889658216
PERSEUS-M2              
1 40037U 14033AD  26204.86130359  .00001307  00000+0  12307-3 0  9990
2 40037  97.9970 156.1543 0011782 171.8573 188.2840 14.95600904656267
PERSEUS-M1              
1 40039U 14033AF  26204.83126378  .00000922  00000+0  88110-4 0  9993
2 40039  97.9652 149.5700 0011627 168.6550 191.4935 14.95732727656118
